MONOLITH                
1 49052U 21068A   26068.54548855  .00008348  00000+0  53656-3 0  9993
2 49052  37.0220 141.2957 0002679 131.6464 228.4511 15.08010119252226
STARLINK-3915           
1 52581U 22051AX  26068.40925243  .00001132  00000+0  89171-4 0  9998
2 52581  53.2163 120.3814 0001236  90.8970 269.2164 15.08845824211545
