[{"OBJECT_NAME":"MONOLITH","OBJECT_ID":"2021-068A","EPOCH":"2026-03-09T13:05:30.210720","MEAN_MOTION":15.08010119,"ECCENTRICITY":0.00026796,"INCLINATION":37.022,"RA_OF_ASC_NODE":141.2957,"ARG_OF_PERICENTER":131.6464,"MEAN_ANOMALY":228.4511,"EPHEMERIS_TYPE":0,"CLASSIFICATION_TYPE":"U","NORAD_CAT_ID":49052,"ELEMENT_SET_NO":999,"REV_AT_EPOCH":25222,"BSTAR":0.00053655804,"MEAN_MOTION_DOT":8.348e-5,"MEAN_MOTION_DDOT":0},{"OBJECT_NAME":"STARLINK-3915","OBJECT_ID":"2022-051AX","EPOCH":"2026-03-09T09:49:19.409952","MEAN_MOTION":15.08845824,"ECCENTRICITY":0.00012362,"INCLINATION":53.2163,"RA_OF_ASC_NODE":120.3814,"ARG_OF_PERICENTER":90.897,"MEAN_ANOMALY":269.2164,"EPHEMERIS_TYPE":0,"CLASSIFICATION_TYPE":"U","NORAD_CAT_ID":52581,"ELEMENT_SET_NO":999,"REV_AT_EPOCH":21154,"BSTAR":8.9170551e-5,"MEAN_MOTION_DOT":1.132e-5,"MEAN_MOTION_DDOT":0}]
